[
    {
        "Altitude(m)": 604221.2290666766,
        "Argument of Periapsis(deg)": 0.0,
        "Eccentricity": 0.0,
        "Inclination(deg)": 60.0,
        "Latitude(deg)": 14.117386934629355,
        "Longitude(deg)": 98.33414968112073,
        "Mean Anomaly(deg)": 16.363600000000012,
        "RAAN(deg)": 190.0,
        "Satellite Name": "Test1 837",
        "Satellite Number": 837,
        "Semi-Major Axis(m)": 6980739.136638005,
        "Time(s)": 0
    },
    {
        "Altitude(m)": 604235.3708497697,
        "Argument of Periapsis(deg)": 0.00010418945913296404,
        "Eccentricity": 0.0,
        "Inclination(deg)": 60.0,
        "Latitude(deg)": 14.65178377233102,
        "Longitude(deg)": 98.62259664613553,
        "Mean Anomaly(deg)": 16.983706145461838,
        "RAAN(deg)": 189.99957995086027,
        "Satellite Name": "Test1 837",
        "Satellite Number": 837,
        "Semi-Major Axis(m)": 6980739.136638005,
        "Time(s)": 10
    }
]